{
    "links": {
        "self": "http://www.neowsapp.com/rest/v1/neo/3448965?api_key=iIulBulltgU6a56xZRHN4H3l9WmuAYTsLGpBGhQ2"
    },
    "id": "3448965",
    "neo_reference_id": "3448965",
    "name": "(2009 DS43)",
    "designation": "2009 DS43",
    "nasa_jpl_url": "http://ssd.jpl.nasa.gov/sbdb.cgi?sstr=3448965",
    "absolute_magnitude_h": 25.8,
    "estimated_diameter": {
        "kilometers": {
            "estimated_diameter_min": 0.0183888672,
            "estimated_diameter_max": 0.0411187571
        },
        "meters": {
            "estimated_diameter_min": 18.388867207,
            "estimated_diameter_max": 41.1187571041
        },
        "miles": {
            "estimated_diameter_min": 0.0114263088,
            "estimated_diameter_max": 0.0255500032
        },
        "feet": {
            "estimated_diameter_min": 60.3309310875,
            "estimated_diameter_max": 134.9040630575
        }
    },
    "is_potentially_hazardous_asteroid": false,
    "close_approach_data": [
        {
            "close_approach_date": "1903-03-01",
            "close_approach_date_full": "1903-Mar-01 07:17",
            "epoch_date_close_approach": -2109256980000,
            "relative_velocity": {
                "kilometers_per_second": "20.4213452129",
                "kilometers_per_hour": "73516.8427664832",
                "miles_per_hour": "45680.5071067629"
            },
            "miss_distance": {
                "astronomical": "0.014097058",
                "lunar": "5.483755562",
                "kilometers": "2108889.85006646",
                "miles": "1310403.388618748"
            },
            "orbiting_body": "Earth"
        },
        {
            "close_approach_date": "2006-09-17",
            "close_approach_date_full": "2006-Sep-17 14:46",
            "epoch_date_close_approach": 1158504360000,
            "relative_velocity": {
                "kilometers_per_second": "26.2054172648",
                "kilometers_per_hour": "94339.5021531288",
                "miles_per_hour": "58618.8978795372"
            },
            "miss_distance": {
                "astronomical": "0.2508699942",
                "lunar": "97.5884277438",
                "kilometers": "37529616.779232354",
                "miles": "23319822.5120763252"
            },
            "orbiting_body": "Earth"
        },
        {
            "close_approach_date": "2009-03-01",
            "close_approach_date_full": "2009-Mar-01 02:56",
            "epoch_date_close_approach": 1235876160000,
            "relative_velocity": {
                "kilometers_per_second": "20.359839132",
                "kilometers_per_hour": "73295.4208752439",
                "miles_per_hour": "45542.9241543981"
            },
            "miss_distance": {
                "astronomical": "0.017355037",
                "lunar": "6.751109393",
                "kilometers": "2596276.56897119",
                "miles": "1613251.452494822"
            },
            "orbiting_body": "Earth"
        },
        {
            "close_approach_date": "2119-08-14",
            "close_approach_date_full": "2119-Aug-14 01:30",
            "epoch_date_close_approach": 4721419800000,
            "relative_velocity": {
                "kilometers_per_second": "15.4783600485",
                "kilometers_per_hour": "55722.0961747501",
                "miles_per_hour": "34623.5435925829"
            },
            "miss_distance": {
                "astronomical": "0.3515635564",
                "lunar": "136.7582234396",
                "kilometers": "52593159.207064868",
                "miles": "32679873.7453884584"
            },
            "orbiting_body": "Earth"
        },
        {
            "close_approach_date": "2123-09-28",
            "close_approach_date_full": "2123-Sep-28 20:33",
            "epoch_date_close_approach": 4851606780000,
            "relative_velocity": {
                "kilometers_per_second": "31.4595269413",
                "kilometers_per_hour": "113254.2969886624",
                "miles_per_hour": "70371.815814983"
            },
            "miss_distance": {
                "astronomical": "0.4476557066",
                "lunar": "174.1380698674",
                "kilometers": "66968340.200704942",
                "miles": "41612197.0175025196"
            },
            "orbiting_body": "Earth"
        }
    ],
    "orbital_data": {
        "orbit_id": "9",
        "orbit_determination_date": "2017-04-06 09:01:12",
        "first_observation_date": "2009-02-27",
        "last_observation_date": "2009-03-01",
        "data_arc_in_days": 2,
        "observations_used": 28,
        "orbit_uncertainty": "8",
        "minimum_orbit_intersection": ".0167488",
        "jupiter_tisserand_invariant": "4.965",
        "epoch_osculation": "2454890.5",
        "eccentricity": ".4587286422107618",
        "semi_major_axis": "1.237637405106962",
        "inclination": "28.64118873590025",
        "ascending_node_longitude": "159.0917783118661",
        "orbital_period": "502.9080260728453",
        "perihelion_distance": ".6698976787129945",
        "perihelion_argument": "94.59251811253237",
        "aphelion_distance": "1.805377131500929",
        "perihelion_time": "2454949.850400852175",
        "mean_anomaly": "317.5148074815411",
        "mean_motion": ".7158366566769699",
        "equinox": "J2000",
        "orbit_class": {
            "orbit_class_type": "APO",
            "orbit_class_description": "Near-Earth asteroid orbits which cross the Earth’s orbit similar to that of 1862 Apollo",
            "orbit_class_range": "a (semi-major axis) > 1.0 AU; q (perihelion) < 1.017 AU"
        }
    },
    "is_sentry_object": false
}